{"type": "FeatureCollection", "features": [{"type": "Feature", "geometry": {"type": "MultiPolygon", "coordinates": [[[[9.471566, 47.06263], [9.471592, 47.06318], [9.471661, 47.06423], [9.47233, 47.06506], [9.473166, 47.06575], [9.474088, 47.06639], [9.475093, 47.06697], [9.478492, 47.06831], [9.479056, 47.06854], [9.487619, 47.07192], [9.489748, 47.07277], [9.491098, 47.07331], [9.492275, 47.07384], [9.498298, 47.07717], [9.505064, 47.0809], [9.508054, 47.08255], [9.512762, 47.08514], [9.513529, 47.08564], [9.514399, 47.08633], [9.515088, 47.08707], [9.515517, 47.08772], [9.518752, 47.09479], [9.519311, 47.09656], [9.519581, 47.09834], [9.519449, 47.10193], [9.518855, 47.1055], [9.518444, 47.10727], [9.516414, 47.11509], [9.514653, 47.12144], [9.514526, 47.12194], [9.512385, 47.1303], [9.511665, 47.13246], [9.508184, 47.14073], [9.507201, 47.14238], [9.50583, 47.1439], [9.50266, 47.14688], [9.50118, 47.14827], [9.499731, 47.14977], [9.498649, 47.15141], [9.495471, 47.15635], [9.495047, 47.157], [9.493316, 47.15964], [9.491307, 47.16297], [9.49067, 47.1645], [9.490661, 47.16457], [9.489339, 47.1689], [9.487505, 47.17528], [9.485985, 47.18052], [9.485849, 47.18144], [9.485937, 47.18236], [9.486325, 47.18414], [9.487877, 47.19016], [9.488151, 47.19123], [9.489185, 47.19475], [9.489763, 47.19649], [9.490508, 47.19794], [9.490631, 47.19819], [9.495652, 47.20535], [9.496566, 47.20671], [9.499633, 47.21136], [9.499859, 47.21215], [9.501195, 47.21836], [9.501643, 47.22018], [9.503503, 47.22351], [9.504641, 47.22513], [9.508606, 47.22978], [9.510333, 47.2318], [9.518013, 47.24065], [9.519227, 47.24221], [9.520452, 47.24396], [9.524749, 47.25233], [9.529833, 47.26185], [9.530113, 47.26249], [9.530264, 47.26336], [9.530279, 47.26463], [9.530335, 47.26879], [9.530376, 47.26948], [9.530468, 47.26987], [9.530749, 47.27058], [9.531256, 47.27016], [9.53135, 47.27008], [9.531872, 47.26965], [9.531907, 47.26962], [9.531915, 47.26961], [9.531929, 47.2696], [9.53194, 47.26959], [9.532085, 47.26947], [9.53252, 47.26908], [9.532647, 47.26894], [9.532751, 47.26884], [9.532846, 47.26876], [9.532968, 47.26866], [9.533252, 47.26844], [9.533388, 47.2683], [9.533472, 47.2682], [9.533564, 47.26812], [9.533883, 47.26783], [9.534337, 47.26761], [9.534604, 47.26742], [9.534792, 47.26728], [9.535448, 47.26682], [9.535551, 47.26676], [9.535832, 47.26651], [9.535928, 47.26644], [9.536, 47.26633], [9.536087, 47.26623], [9.53621, 47.26618], [9.536419, 47.26596], [9.536514, 47.26593], [9.536543, 47.26591], [9.536618, 47.26587], [9.53664, 47.26586], [9.536709, 47.26586], [9.536753, 47.26586], [9.536773, 47.26586], [9.536799, 47.26586], [9.536862, 47.26587], [9.536878, 47.26587], [9.537002, 47.26588], [9.537128, 47.26586], [9.537203, 47.26582], [9.537261, 47.26576], [9.537302, 47.26576], [9.537406, 47.26578], [9.537544, 47.26585], [9.5377, 47.26591], [9.537758, 47.26596], [9.537752, 47.26609], [9.537818, 47.26611], [9.537889, 47.26608], [9.537987, 47.26604], [9.538073, 47.26601], [9.53815, 47.266], [9.538244, 47.26602], [9.538449, 47.26592], [9.538516, 47.2659], [9.538612, 47.26589], [9.538783, 47.26582], [9.538936, 47.26577], [9.53898, 47.26575], [9.539063, 47.26557], [9.539178, 47.26551], [9.539274, 47.26539], [9.539399, 47.26528], [9.53948, 47.26524], [9.539539, 47.26518], [9.539632, 47.26511], [9.539696, 47.26508], [9.539716, 47.26508], [9.539808, 47.26511], [9.539899, 47.26499], [9.539903, 47.2649], [9.53979, 47.26475], [9.53976, 47.26467], [9.539817, 47.26455], [9.539853, 47.26445], [9.539927, 47.26431], [9.539967, 47.26425], [9.540023, 47.26418], [9.540071, 47.26414], [9.540182, 47.26403], [9.540206, 47.26397], [9.540221, 47.26391], [9.540324, 47.2634], [9.540283, 47.2633], [9.54027, 47.26316], [9.540316, 47.26306], [9.540361, 47.26301], [9.540394, 47.26277], [9.540377, 47.26272], [9.540271, 47.26262], [9.540181, 47.26259], [9.540101, 47.26257], [9.539871, 47.26241], [9.539745, 47.26234], [9.539697, 47.26233], [9.539649, 47.26229], [9.539594, 47.26222], [9.539569, 47.26217], [9.53949, 47.26203], [9.539374, 47.26189], [9.539367, 47.26183], [9.539601, 47.26174], [9.539696, 47.26172], [9.539736, 47.26169], [9.539702, 47.26163], [9.539674, 47.26156], [9.539697, 47.2615], [9.539579, 47.2614], [9.539561, 47.26138], [9.539522, 47.26135], [9.540452, 47.26079], [9.540706, 47.26064], [9.541017, 47.26047], [9.541068, 47.26044], [9.541375, 47.26028], [9.541638, 47.26015], [9.542955, 47.25954], [9.543076, 47.25947], [9.543152, 47.25942], [9.543242, 47.25935], [9.543313, 47.25929], [9.543375, 47.25921], [9.543435, 47.25912], [9.543539, 47.25894], [9.5436, 47.25885], [9.54368, 47.25875], [9.543733, 47.2587], [9.543793, 47.25865], [9.543853, 47.25861], [9.54393, 47.25856], [9.544013, 47.25852], [9.544111, 47.25848], [9.544154, 47.25846], [9.544823, 47.25819], [9.545221, 47.25804], [9.545341, 47.25799], [9.545466, 47.25795], [9.545593, 47.25791], [9.545706, 47.25789], [9.545841, 47.25786], [9.545957, 47.25784], [9.546246, 47.25779], [9.546364, 47.25777], [9.546615, 47.25772], [9.546735, 47.25769], [9.546831, 47.25767], [9.546946, 47.25763], [9.547968, 47.25733], [9.548094, 47.25729], [9.548201, 47.25725], [9.548305, 47.2572], [9.548407, 47.25716], [9.548502, 47.25711], [9.548596, 47.25706], [9.548688, 47.257], [9.548775, 47.25694], [9.548862, 47.25688], [9.549607, 47.25634], [9.549706, 47.25627], [9.549899, 47.25615], [9.550003, 47.25608], [9.550132, 47.25602], [9.55026, 47.25595], [9.5504, 47.25589], [9.550959, 47.25565], [9.551074, 47.2556], [9.551187, 47.25554], [9.55131, 47.25547], [9.551441, 47.25539], [9.551543, 47.25533], [9.551641, 47.25526], [9.551747, 47.25518], [9.551849, 47.25509], [9.551946, 47.25501], [9.552027, 47.25493], [9.552316, 47.25462], [9.552501, 47.25442], [9.552568, 47.25435], [9.552677, 47.25424], [9.55278, 47.25415], [9.552879, 47.25407], [9.552993, 47.25398], [9.553111, 47.25391], [9.553182, 47.25386], [9.55418, 47.2532], [9.554305, 47.25313], [9.554372, 47.2531], [9.554457, 47.25308], [9.55457, 47.25305], [9.55472, 47.25303], [9.555012, 47.25301], [9.55514, 47.25299], [9.555276, 47.25296], [9.555393, 47.25292], [9.555499, 47.25287], [9.555592, 47.25281], [9.555678, 47.25273], [9.555931, 47.25247], [9.55599, 47.25241], [9.556513, 47.25186], [9.557105, 47.25124], [9.557197, 47.25116], [9.557293, 47.2511], [9.557391, 47.25104], [9.557483, 47.25099], [9.557555, 47.25097], [9.55761, 47.25095], [9.557733, 47.25091], [9.55788, 47.25088], [9.557992, 47.25087], [9.558221, 47.25084], [9.558559, 47.25081], [9.558739, 47.25078], [9.55889, 47.25075], [9.559032, 47.25071], [9.559168, 47.25066], [9.55923, 47.25063], [9.559297, 47.25059], [9.559421, 47.25052], [9.559501, 47.25047], [9.55957, 47.25041], [9.559614, 47.25037], [9.559712, 47.25026], [9.559784, 47.25017], [9.560061, 47.24983], [9.560202, 47.24966], [9.560472, 47.24932], [9.560543, 47.24925], [9.56063, 47.24918], [9.560734, 47.24911], [9.560835, 47.24906], [9.561252, 47.24888], [9.561304, 47.24885], [9.561352, 47.24882], [9.561378, 47.24879], [9.561413, 47.24874], [9.561428, 47.2487], [9.561429, 47.24864], [9.56142, 47.24859], [9.561409, 47.24856], [9.561277, 47.24832], [9.561261, 47.24829], [9.561448, 47.24824], [9.561528, 47.24821], [9.561901, 47.24776], [9.562048, 47.24757], [9.562405, 47.24713], [9.563573, 47.24602], [9.563672, 47.24593], [9.56375, 47.24585], [9.564376, 47.24523], [9.564388, 47.24522], [9.565095, 47.24452], [9.565608, 47.24402], [9.566073, 47.24358], [9.566114, 47.24352], [9.566725, 47.24292], [9.567229, 47.24188], [9.56741, 47.24092], [9.567265, 47.24071], [9.567095, 47.24056], [9.566844, 47.24026], [9.566766, 47.24014], [9.566723, 47.24009], [9.56663, 47.24008], [9.566499, 47.23995], [9.566442, 47.23985], [9.566263, 47.23967], [9.566092, 47.23951], [9.565817, 47.23929], [9.56582, 47.23923], [9.565708, 47.23914], [9.565542, 47.239], [9.565313, 47.23883], [9.565192, 47.23877], [9.565105, 47.23866], [9.564992, 47.23859], [9.564973, 47.23853], [9.5649, 47.23842], [9.564807, 47.23838], [9.564721, 47.23831], [9.564649, 47.23828], [9.564649, 47.23821], [9.564564, 47.23811], [9.5643, 47.23787], [9.564201, 47.23777], [9.564082, 47.23767], [9.564017, 47.23772], [9.564009, 47.23764], [9.563922, 47.23755], [9.563817, 47.23747], [9.563665, 47.2373], [9.563606, 47.23725], [9.563419, 47.23713], [9.56335, 47.23705], [9.563196, 47.23693], [9.563163, 47.23698], [9.562989, 47.23692], [9.562941, 47.23682], [9.562873, 47.23676], [9.56277, 47.2367], [9.562694, 47.2366], [9.562526, 47.23643], [9.562412, 47.23623], [9.562072, 47.23606], [9.562015, 47.23596], [9.561873, 47.23581], [9.561825, 47.23578], [9.56179, 47.23569], [9.561629, 47.23557], [9.561366, 47.23534], [9.561269, 47.23528], [9.561177, 47.23526], [9.561191, 47.23522], [9.560849, 47.23497], [9.560707, 47.23494], [9.560653, 47.23483], [9.560235, 47.23454], [9.56008, 47.2344], [9.55993, 47.23435], [9.559812, 47.23421], [9.559679, 47.23416], [9.55963, 47.23408], [9.559545, 47.23396], [9.559255, 47.2337], [9.558949, 47.23349], [9.55903, 47.23335], [9.558818, 47.23327], [9.558654, 47.23314], [9.558457, 47.233], [9.558416, 47.23292], [9.558294, 47.23275], [9.558229, 47.23267], [9.558063, 47.23265], [9.558219, 47.23255], [9.558122, 47.23249], [9.558048, 47.23237], [9.557981, 47.23233], [9.557946, 47.23217], [9.557675, 47.23194], [9.557666, 47.23182], [9.557543, 47.23158], [9.557612, 47.2315], [9.55762, 47.23146], [9.557503, 47.23128], [9.557358, 47.23111], [9.557231, 47.23103], [9.557202, 47.23092], [9.557113, 47.23077], [9.557055, 47.23071], [9.556844, 47.23062], [9.55672, 47.2305], [9.55668, 47.23048], [9.556589, 47.23037], [9.556532, 47.23028], [9.55637, 47.23017], [9.556412, 47.23012], [9.556524, 47.23004], [9.556512, 47.23002], [9.556313, 47.22992], [9.556284, 47.22993], [9.556221, 47.2298], [9.556137, 47.22974], [9.556032, 47.22961], [9.555926, 47.22935], [9.555996, 47.22932], [9.555929, 47.22922], [9.555761, 47.22913], [9.555588, 47.22901], [9.555501, 47.22896], [9.555439, 47.22886], [9.555485, 47.2288], [9.555404, 47.22869], [9.555341, 47.22857], [9.555233, 47.22824], [9.555202, 47.22818], [9.554908, 47.22791], [9.554769, 47.22779], [9.554634, 47.22765], [9.554473, 47.2275], [9.554417, 47.22746], [9.554489, 47.22739], [9.554373, 47.22732], [9.554455, 47.22725], [9.554427, 47.22723], [9.55431, 47.22719], [9.554204, 47.22693], [9.554257, 47.22691], [9.554688, 47.22667], [9.554645, 47.22659], [9.55458, 47.22649], [9.554405, 47.2264], [9.554197, 47.2263], [9.553996, 47.22615], [9.553952, 47.22612], [9.553708, 47.22593], [9.553502, 47.22576], [9.553404, 47.22568], [9.553315, 47.22555], [9.55329, 47.22547], [9.553196, 47.22532], [9.553035, 47.22512], [9.552893, 47.22504], [9.552848, 47.22501], [9.552701, 47.22498], [9.552474, 47.22499], [9.552652, 47.22484], [9.552746, 47.22475], [9.552699, 47.22467], [9.552478, 47.22452], [9.552422, 47.2245], [9.55235, 47.22434], [9.552297, 47.22426], [9.552195, 47.22399], [9.551769, 47.22375], [9.552071, 47.22367], [9.552668, 47.22372], [9.553318, 47.22378], [9.553695, 47.22382], [9.553961, 47.22392], [9.554213, 47.22405], [9.554331, 47.22411], [9.554499, 47.22397], [9.554608, 47.2239], [9.555231, 47.22379], [9.555439, 47.22379], [9.555433, 47.22366], [9.555422, 47.22307], [9.555413, 47.22251], [9.555786, 47.22257], [9.555886, 47.22261], [9.556064, 47.22276], [9.556215, 47.22279], [9.556921, 47.22306], [9.557227, 47.22319], [9.557437, 47.2232], [9.557567, 47.22324], [9.557644, 47.22328], [9.5577, 47.22331], [9.557783, 47.22338], [9.557849, 47.22344], [9.557873, 47.22346], [9.557943, 47.22371], [9.558201, 47.22378], [9.558392, 47.22392], [9.558463, 47.22403], [9.558499, 47.22409], [9.558547, 47.22412], [9.558734, 47.22398], [9.558828, 47.22387], [9.559119, 47.22376], [9.559246, 47.22375], [9.559535, 47.22373], [9.559639, 47.22375], [9.559718, 47.22375], [9.55985, 47.22371], [9.560005, 47.22372], [9.560118, 47.22369], [9.560265, 47.22367], [9.560368, 47.22363], [9.560514, 47.22355], [9.560678, 47.22346], [9.560931, 47.22335], [9.561122, 47.22327], [9.561197, 47.22321], [9.561238, 47.2232], [9.561288, 47.22318], [9.561356, 47.22315], [9.561452, 47.22312], [9.561523, 47.22309], [9.561677, 47.22304], [9.561832, 47.22298], [9.561944, 47.22294], [9.562002, 47.22292], [9.562135, 47.22281], [9.562238, 47.22272], [9.562325, 47.22265], [9.562433, 47.22256], [9.562535, 47.22247], [9.562834, 47.22222], [9.562888, 47.22217], [9.56298, 47.2221], [9.563103, 47.22199], [9.563175, 47.22193], [9.563216, 47.2219], [9.563195, 47.22185], [9.563213, 47.2217], [9.563438, 47.22138], [9.563719, 47.22112], [9.563767, 47.22115], [9.563819, 47.22112], [9.563779, 47.22104], [9.563819, 47.22104], [9.563882, 47.22099], [9.563988, 47.22082], [9.564154, 47.2207], [9.564195, 47.22064], [9.564235, 47.22064], [9.564293, 47.22067], [9.564711, 47.22078], [9.56482, 47.22074], [9.564909, 47.22071], [9.565049, 47.22069], [9.565313, 47.22061], [9.565435, 47.22056], [9.565614, 47.22052], [9.565801, 47.22047], [9.565957, 47.22044], [9.566209, 47.22041], [9.566312, 47.22044], [9.566419, 47.22044], [9.566781, 47.22035], [9.566871, 47.22031], [9.566988, 47.22027], [9.567071, 47.2202], [9.56719, 47.22015], [9.567237, 47.22011], [9.567285, 47.22], [9.56736, 47.21996], [9.567445, 47.21996], [9.567559, 47.22004], [9.567682, 47.22], [9.567922, 47.22003], [9.56797, 47.22002], [9.568062, 47.21997], [9.568152, 47.21995], [9.568245, 47.21992], [9.568347, 47.21989], [9.568448, 47.21982], [9.568559, 47.21979], [9.56866, 47.21973], [9.568699, 47.21968], [9.568839, 47.21958], [9.56899, 47.21948], [9.56903, 47.21941], [9.569078, 47.21934], [9.569114, 47.21933], [9.569155, 47.21934], [9.569263, 47.21937], [9.569747, 47.21886], [9.569838, 47.21876], [9.570181, 47.21843], [9.570337, 47.21827], [9.570482, 47.21813], [9.570949, 47.21764], [9.571157, 47.21742], [9.571528, 47.21702], [9.572329, 47.21626], [9.572553, 47.21611], [9.573016, 47.21577], [9.573521, 47.21529], [9.573677, 47.21516], [9.573757, 47.21507], [9.57386, 47.215], [9.574044, 47.21485], [9.574587, 47.21453], [9.574653, 47.21448], [9.575071, 47.21418], [9.575662, 47.21371], [9.576159, 47.21312], [9.576866, 47.21218], [9.577535, 47.21126], [9.577501, 47.21066], [9.577933, 47.2098], [9.578046, 47.20958], [9.578155, 47.20948], [9.578308, 47.20904], [9.578469, 47.20889], [9.57886, 47.20874], [9.579218, 47.20858], [9.579368, 47.20848], [9.579606, 47.20838], [9.579766, 47.20829], [9.579847, 47.20819], [9.580272, 47.20796], [9.580578, 47.20769], [9.580997, 47.20747], [9.581405, 47.20719], [9.58166, 47.20698], [9.581977, 47.20673], [9.582574, 47.20632], [9.583027, 47.20609], [9.583218, 47.20602], [9.583434, 47.20595], [9.583847, 47.20586], [9.583915, 47.2058], [9.584172, 47.20564], [9.584726, 47.20539], [9.584895, 47.20535], [9.584878, 47.20493], [9.584848, 47.20478], [9.584809, 47.20457], [9.584735, 47.20453], [9.583957, 47.20396], [9.583613, 47.20375], [9.583306, 47.20348], [9.583244, 47.20329], [9.583122, 47.20293], [9.582914, 47.20264], [9.582678, 47.20223], [9.582484, 47.20164], [9.581825, 47.20103], [9.581695, 47.20089], [9.581169, 47.20001], [9.580959, 47.1995], [9.580604, 47.19865], [9.580525, 47.19846], [9.580525, 47.19766], [9.580535, 47.19758], [9.580417, 47.19718], [9.580406, 47.19699], [9.58045, 47.19606], [9.580317, 47.19578], [9.579146, 47.1957], [9.579003, 47.19521], [9.578997, 47.19501], [9.578704, 47.19455], [9.578681, 47.19448], [9.578589, 47.19441], [9.578293, 47.19429], [9.578154, 47.19419], [9.577877, 47.19409], [9.57781, 47.19402], [9.577668, 47.19395], [9.577568, 47.1939], [9.577435, 47.19386], [9.577304, 47.19377], [9.577196, 47.19366], [9.577145, 47.1935], [9.57706, 47.1934], [9.576675, 47.19306], [9.576488, 47.19287], [9.575956, 47.19265], [9.575826, 47.19256], [9.575806, 47.19248], [9.575546, 47.19233], [9.575281, 47.19219], [9.57497, 47.19199], [9.574854, 47.19189], [9.574751, 47.19183], [9.574636, 47.1917], [9.574577, 47.19168], [9.574443, 47.19158], [9.574217, 47.19149], [9.573877, 47.1913], [9.573706, 47.19124], [9.573534, 47.19113], [9.573437, 47.1911], [9.573406, 47.19105], [9.573316, 47.19102], [9.573217, 47.19094], [9.572999, 47.19095], [9.572594, 47.19079], [9.573091, 47.18783], [9.573182, 47.18722], [9.573291, 47.18691], [9.573428, 47.18642], [9.573529, 47.18596], [9.573539, 47.18569], [9.573528, 47.18539], [9.573539, 47.18505], [9.573442, 47.18436], [9.573383, 47.18372], [9.573583, 47.18337], [9.573595, 47.183], [9.573635, 47.18187], [9.573654, 47.18119], [9.573676, 47.18051], [9.573638, 47.18006], [9.573588, 47.17943], [9.573529, 47.17878], [9.574296, 47.1781], [9.574204, 47.17806], [9.574171, 47.17806], [9.574126, 47.17806], [9.573914, 47.17796], [9.573913, 47.17794], [9.573956, 47.17792], [9.573956, 47.17788], [9.573887, 47.17781], [9.573844, 47.17771], [9.573819, 47.1777], [9.573787, 47.1777], [9.573692, 47.17766], [9.573573, 47.17755], [9.573552, 47.17751], [9.573491, 47.17745], [9.573483, 47.17742], [9.573444, 47.17737], [9.573347, 47.17724], [9.573451, 47.17713], [9.573429, 47.17708], [9.573462, 47.17703], [9.573365, 47.17695], [9.57328, 47.17694], [9.573267, 47.17691], [9.573285, 47.1769], [9.573323, 47.1767], [9.573301, 47.17665], [9.573468, 47.17655], [9.573515, 47.17651], [9.573527, 47.17647], [9.573498, 47.17644], [9.573469, 47.17642], [9.5734, 47.17636], [9.573357, 47.17635], [9.57325, 47.17624], [9.573094, 47.17621], [9.573094, 47.17614], [9.573123, 47.17612], [9.573189, 47.17602], [9.57316, 47.17594], [9.573189, 47.176], [9.573172, 47.17586], [9.573151, 47.17582], [9.573108, 47.17582], [9.573098, 47.17576], [9.573138, 47.1757], [9.573135, 47.17567], [9.573107, 47.17566], [9.573134, 47.17562], [9.573133, 47.17559], [9.573068, 47.17556], [9.572972, 47.17557], [9.572931, 47.17555], [9.572872, 47.17554], [9.572824, 47.17552], [9.572745, 47.17552], [9.572683, 47.17551], [9.572635, 47.17549], [9.572593, 47.1754], [9.572541, 47.17536], [9.572368, 47.17534], [9.572306, 47.17532], [9.572304, 47.17529], [9.572243, 47.17526], [9.572188, 47.17522], [9.572155, 47.17523], [9.571985, 47.17513], [9.571927, 47.17512], [9.571794, 47.17511], [9.571774, 47.17515], [9.571727, 47.17511], [9.571655, 47.17508], [9.571607, 47.17505], [9.571567, 47.17495], [9.571574, 47.17489], [9.571466, 47.17484], [9.571456, 47.17482], [9.571324, 47.17479], [9.57128, 47.1748], [9.571262, 47.17479], [9.571238, 47.17474], [9.57121, 47.17474], [9.571172, 47.17475], [9.571116, 47.1747], [9.570885, 47.17468], [9.570857, 47.17465], [9.570826, 47.17465], [9.570823, 47.17463], [9.570733, 47.17464], [9.570697, 47.17463], [9.570665, 47.17461], [9.570587, 47.1746], [9.570487, 47.17459], [9.570454, 47.17457], [9.570407, 47.17453], [9.570278, 47.17447], [9.570132, 47.17443], [9.570003, 47.17438], [9.569908, 47.17435], [9.569688, 47.17436], [9.569526, 47.1743], [9.569233, 47.17407], [9.569063, 47.174], [9.569036, 47.17396], [9.568787, 47.17389], [9.568692, 47.17389], [9.568614, 47.17386], [9.568309, 47.1737], [9.568185, 47.17368], [9.568074, 47.17364], [9.567751, 47.1734], [9.567674, 47.17336], [9.56727, 47.17319], [9.56712, 47.17307], [9.567076, 47.17301], [9.567016, 47.17296], [9.566857, 47.1729], [9.566834, 47.17286], [9.566745, 47.17283], [9.566703, 47.17277], [9.566622, 47.17267], [9.566645, 47.17257], [9.566639, 47.17251], [9.566581, 47.17244], [9.566481, 47.17237], [9.566483, 47.17233], [9.566434, 47.17227], [9.566417, 47.17221], [9.566393, 47.17218], [9.566415, 47.17215], [9.566389, 47.17211], [9.566371, 47.17203], [9.566323, 47.172], [9.566205, 47.17189], [9.566186, 47.17181], [9.566158, 47.17178], [9.566113, 47.17175], [9.566107, 47.17171], [9.566082, 47.1716], [9.56601, 47.17152], [9.565919, 47.17146], [9.565848, 47.17134], [9.565803, 47.17124], [9.565742, 47.17118], [9.565693, 47.17115], [9.565626, 47.17116], [9.565561, 47.17114], [9.565459, 47.17109], [9.56551, 47.17102], [9.565492, 47.17094], [9.565514, 47.17086], [9.565488, 47.17081], [9.565409, 47.17075], [9.565326, 47.17073], [9.565223, 47.17067], [9.565124, 47.17063], [9.565046, 47.17056], [9.56505, 47.17051], [9.564981, 47.17043], [9.564778, 47.17031], [9.564626, 47.17025], [9.56481, 47.17028], [9.564916, 47.1703], [9.565032, 47.1703], [9.565116, 47.17028], [9.565128, 47.17031], [9.565263, 47.17034], [9.565344, 47.17033], [9.565392, 47.17026], [9.565501, 47.1702], [9.565625, 47.1701], [9.565699, 47.17007], [9.565798, 47.17006], [9.565831, 47.17003], [9.565871, 47.17004], [9.565956, 47.17], [9.566089, 47.16997], [9.566135, 47.16994], [9.566183, 47.16987], [9.56632, 47.16983], [9.56646, 47.16984], [9.566572, 47.16981], [9.566756, 47.16983], [9.566799, 47.1698], [9.566864, 47.16979], [9.566958, 47.16986], [9.567096, 47.16986], [9.567168, 47.16983], [9.567308, 47.16981], [9.567379, 47.16978], [9.567435, 47.16977], [9.567525, 47.16978], [9.567658, 47.16984], [9.567722, 47.16985], [9.567752, 47.16987], [9.567808, 47.16986], [9.567843, 47.16989], [9.567956, 47.16986], [9.567996, 47.16979], [9.568109, 47.16979], [9.568366, 47.16975], [9.568483, 47.16975], [9.568552, 47.16971], [9.568615, 47.1697], [9.568649, 47.16966], [9.568704, 47.16966], [9.568786, 47.1696], [9.568842, 47.16958], [9.568858, 47.16959], [9.568895, 47.16959], [9.568912, 47.16961], [9.568926, 47.16964], [9.568959, 47.16968], [9.569003, 47.1697], [9.569034, 47.16975], [9.569111, 47.1698], [9.569231, 47.16981], [9.56929, 47.16986], [9.569337, 47.16987], [9.569404, 47.16986], [9.56958, 47.16986], [9.56968, 47.16992], [9.569727, 47.16999], [9.569861, 47.16999], [9.569958, 47.16998], [9.570042, 47.16992], [9.570099, 47.16986], [9.570376, 47.1698], [9.570395, 47.16972], [9.5705, 47.16972], [9.570656, 47.16976], [9.570766, 47.16975], [9.570892, 47.16981], [9.570909, 47.1698], [9.57092, 47.1698], [9.571346, 47.16949], [9.571651, 47.1695], [9.571777, 47.16955], [9.57181, 47.16962], [9.571906, 47.16966], [9.57205, 47.16962], [9.572335, 47.16961], [9.57247, 47.16959], [9.572491, 47.1696], [9.572646, 47.16957], [9.572676, 47.16955], [9.572757, 47.16954], [9.572892, 47.16959], [9.573138, 47.16963], [9.573278, 47.16963], [9.573342, 47.16964], [9.5734, 47.16963], [9.573654, 47.16965], [9.573786, 47.16963], [9.57397, 47.16969], [9.574075, 47.16965], [9.574291, 47.16972], [9.574395, 47.1697], [9.574418, 47.16969], [9.5749, 47.16976], [9.574933, 47.1698], [9.575015, 47.16982], [9.575072, 47.16981], [9.575146, 47.16984], [9.575205, 47.16984], [9.575323, 47.16991], [9.575424, 47.16995], [9.575628, 47.17001], [9.57565, 47.17006], [9.575757, 47.17008], [9.575893, 47.17009], [9.575929, 47.17011], [9.576089, 47.17014], [9.57618, 47.1702], [9.576277, 47.17022], [9.576297, 47.17024], [9.576414, 47.17028], [9.576518, 47.17031], [9.576527, 47.17033], [9.576654, 47.17033], [9.576697, 47.17039], [9.576806, 47.17046], [9.577072, 47.17059], [9.577313, 47.17064], [9.577429, 47.1707], [9.578164, 47.17089], [9.578352, 47.17091], [9.578899, 47.17105], [9.579002, 47.17105], [9.579114, 47.17105], [9.579229, 47.17111], [9.579336, 47.17111], [9.579458, 47.17114], [9.582431, 47.16948], [9.584473, 47.16841], [9.587066, 47.16688], [9.58764, 47.16655], [9.589317, 47.1656], [9.590927, 47.16469], [9.591427, 47.16457], [9.591614, 47.16454], [9.592186, 47.16433], [9.594847, 47.16345], [9.596766, 47.16289], [9.597009, 47.16255], [9.597746, 47.16153], [9.598999, 47.16053], [9.600643, 47.15919], [9.600637, 47.15911], [9.600744, 47.15903], [9.600787, 47.15901], [9.600793, 47.15895], [9.600921, 47.15882], [9.600903, 47.15876], [9.600973, 47.15867], [9.600942, 47.15864], [9.600888, 47.15853], [9.600917, 47.15847], [9.600888, 47.15843], [9.600831, 47.1584], [9.600761, 47.15827], [9.600704, 47.15802], [9.600793, 47.15777], [9.600834, 47.15773], [9.60086, 47.15761], [9.600828, 47.15756], [9.600807, 47.15735], [9.600769, 47.15734], [9.600738, 47.15731], [9.600697, 47.15729], [9.600684, 47.15727], [9.600601, 47.15721], [9.600582, 47.15717], [9.600503, 47.15714], [9.600477, 47.1571], [9.600439, 47.15709], [9.600408, 47.15704], [9.600424, 47.15698], [9.600418, 47.15693], [9.600389, 47.1569], [9.600305, 47.1569], [9.600194, 47.15679], [9.600189, 47.15677], [9.600367, 47.15671], [9.600413, 47.15671], [9.600492, 47.15666], [9.600606, 47.15651], [9.60066, 47.15648], [9.600725, 47.15648], [9.600807, 47.15639], [9.600858, 47.15628], [9.601047, 47.15614], [9.60115, 47.15603], [9.601276, 47.15603], [9.601262, 47.15591], [9.601234, 47.15586], [9.601265, 47.15583], [9.601452, 47.15581], [9.601748, 47.15572], [9.601821, 47.15569], [9.601971, 47.15558], [9.601959, 47.15552], [9.60204, 47.15539], [9.602123, 47.15533], [9.602118, 47.15531], [9.602208, 47.15524], [9.60221, 47.1552], [9.602177, 47.15518], [9.602142, 47.15505], [9.602208, 47.15487], [9.602305, 47.15476], [9.602316, 47.1547], [9.602373, 47.15465], [9.602431, 47.15455], [9.602582, 47.15439], [9.602761, 47.15424], [9.602839, 47.15417], [9.602844, 47.15413], [9.602889, 47.15409], [9.602937, 47.154], [9.602925, 47.15394], [9.602991, 47.15381], [9.602993, 47.15361], [9.603018, 47.15357], [9.603002, 47.15348], [9.60303, 47.15342], [9.60306, 47.15339], [9.603068, 47.15335], [9.603081, 47.15327], [9.603072, 47.15323], [9.603154, 47.15317], [9.603213, 47.15295], [9.603199, 47.15288], [9.603132, 47.15279], [9.603236, 47.15264], [9.60337, 47.15261], [9.603324, 47.15246], [9.603311, 47.15235], [9.603332, 47.15223], [9.603224, 47.15208], [9.603107, 47.15203], [9.602951, 47.1519], [9.602874, 47.15187], [9.602845, 47.15185], [9.602821, 47.15179], [9.60284, 47.15175], [9.602826, 47.15172], [9.602845, 47.15161], [9.602878, 47.15159], [9.602939, 47.15156], [9.602948, 47.15152], [9.602988, 47.15152], [9.603045, 47.15147], [9.6031, 47.15143], [9.603102, 47.15135], [9.603236, 47.15124], [9.603445, 47.15117], [9.603467, 47.15105], [9.603522, 47.15102], [9.603546, 47.15098], [9.603724, 47.15092], [9.603798, 47.15084], [9.603902, 47.1508], [9.603838, 47.15077], [9.603808, 47.15075], [9.603801, 47.1507], [9.603834, 47.15064], [9.604018, 47.15054], [9.604097, 47.15054], [9.604099, 47.15049], [9.604117, 47.15047], [9.604266, 47.15037], [9.604358, 47.15035], [9.604396, 47.15029], [9.604526, 47.15028], [9.604576, 47.15026], [9.604606, 47.15024], [9.604692, 47.15024], [9.604829, 47.15017], [9.6049, 47.15008], [9.604925, 47.15002], [9.605047, 47.14987], [9.605129, 47.14981], [9.605173, 47.14932], [9.605212, 47.14931], [9.605281, 47.14921], [9.605344, 47.14918], [9.605452, 47.14917], [9.605666, 47.14908], [9.6057, 47.14902], [9.605838, 47.14895], [9.605904, 47.14893], [9.606011, 47.14895], [9.606075, 47.14893], [9.606164, 47.14884], [9.606226, 47.14881], [9.606395, 47.14876], [9.606438, 47.14877], [9.606528, 47.14873], [9.60672, 47.14867], [9.606938, 47.14845], [9.607, 47.14842], [9.607302, 47.14833], [9.607397, 47.14832], [9.607484, 47.14828], [9.607629, 47.14826], [9.607762, 47.14829], [9.607935, 47.14826], [9.608037, 47.14826], [9.60818, 47.14816], [9.60825, 47.14803], [9.608429, 47.14795], [9.608521, 47.14788], [9.60856, 47.14787], [9.608621, 47.1478], [9.608714, 47.14777], [9.608783, 47.14778], [9.608817, 47.14776], [9.609031, 47.14776], [9.609158, 47.14778], [9.609231, 47.14773], [9.609357, 47.14773], [9.60938, 47.14772], [9.609413, 47.14772], [9.609473, 47.14766], [9.609535, 47.14762], [9.609578, 47.1476], [9.609669, 47.14758], [9.609701, 47.14756], [9.609747, 47.14757], [9.609821, 47.14753], [9.609919, 47.14757], [9.609975, 47.14756], [9.610039, 47.14751], [9.610108, 47.1475], [9.610239, 47.14752], [9.610317, 47.14758], [9.610364, 47.14756], [9.610403, 47.14753], [9.610473, 47.14754], [9.610533, 47.14755], [9.610569, 47.14762], [9.610593, 47.14763], [9.61067, 47.14758], [9.610727, 47.14758], [9.610769, 47.14759], [9.610856, 47.14755], [9.61093, 47.14754], [9.610947, 47.14749], [9.611012, 47.14747], [9.611047, 47.14743], [9.611147, 47.14741], [9.611228, 47.14739], [9.611308, 47.1474], [9.611415, 47.14738], [9.611555, 47.1474], [9.611643, 47.14743], [9.611802, 47.14741], [9.611992, 47.14744], [9.612025, 47.14745], [9.612074, 47.14753], [9.612145, 47.14754], [9.612243, 47.14751], [9.612399, 47.14753], [9.61259, 47.14752], [9.612743, 47.14756], [9.612833, 47.14747], [9.612873, 47.14745], [9.612968, 47.14743], [9.613034, 47.14742], [9.613151, 47.14742], [9.613274, 47.14745], [9.613318, 47.14747], [9.613366, 47.14746], [9.613452, 47.14747], [9.613699, 47.14755], [9.613775, 47.14755], [9.613889, 47.14753], [9.613981, 47.14753], [9.614159, 47.1476], [9.61429, 47.14762], [9.61437, 47.14765], [9.614484, 47.1477], [9.614556, 47.14777], [9.614605, 47.14778], [9.614684, 47.14776], [9.614749, 47.14776], [9.614978, 47.14785], [9.615141, 47.14795], [9.615553, 47.14815], [9.615902, 47.14829], [9.615988, 47.14834], [9.616112, 47.14847], [9.616513, 47.14864], [9.616618, 47.1487], [9.616716, 47.14877], [9.616852, 47.14895], [9.617121, 47.14903], [9.617248, 47.1491], [9.617391, 47.14926], [9.617742, 47.14938], [9.61816, 47.14955], [9.618249, 47.14957], [9.61831, 47.1496], [9.618325, 47.14964], [9.618529, 47.14969], [9.618709, 47.14975], [9.618778, 47.14983], [9.61878, 47.14989], [9.61882, 47.1499], [9.618859, 47.14993], [9.618878, 47.15001], [9.61883, 47.15013], [9.618789, 47.1502], [9.618758, 47.15024], [9.618756, 47.15027], [9.618802, 47.15035], [9.619363, 47.15068], [9.619463, 47.15071], [9.619501, 47.15078], [9.619475, 47.15084], [9.619495, 47.15089], [9.619576, 47.15093], [9.619654, 47.15094], [9.619682, 47.15101], [9.619677, 47.15106], [9.619873, 47.1512], [9.620032, 47.15135], [9.620487, 47.15154], [9.620567, 47.15164], [9.620702, 47.15164], [9.620841, 47.15155], [9.620976, 47.15152], [9.621033, 47.15153], [9.621092, 47.15154], [9.621133, 47.15156], [9.621159, 47.15155], [9.621222, 47.15148], [9.621304, 47.15145], [9.621305, 47.15142], [9.621338, 47.15138], [9.621429, 47.15137], [9.621464, 47.15137], [9.621498, 47.15139], [9.621604, 47.15136], [9.62167, 47.15135], [9.621721, 47.15129], [9.621721, 47.15125], [9.621793, 47.15117], [9.621768, 47.15109], [9.621695, 47.15098], [9.621492, 47.15066], [9.621439, 47.15051], [9.621413, 47.15042], [9.621412, 47.15037], [9.621433, 47.15032], [9.621481, 47.15027], [9.621487, 47.15021], [9.621519, 47.15018], [9.621588, 47.15005], [9.621663, 47.14996], [9.621709, 47.14986], [9.621821, 47.14978], [9.621894, 47.14976], [9.622014, 47.14964], [9.621923, 47.14943], [9.621937, 47.14935], [9.621977, 47.1493], [9.622154, 47.14915], [9.62229, 47.14909], [9.622369, 47.14902], [9.622411, 47.149], [9.62248, 47.14886], [9.622636, 47.14883], [9.622709, 47.14876], [9.622608, 47.14867], [9.622596, 47.14863], [9.622625, 47.14858], [9.62257, 47.14849], [9.62257, 47.1484], [9.622671, 47.14826], [9.622759, 47.14819], [9.622863, 47.14814], [9.622909, 47.14805], [9.622984, 47.14804], [9.623012, 47.14802], [9.623001, 47.14795], [9.623018, 47.14793], [9.623075, 47.1479], [9.623045, 47.14785], [9.623043, 47.1478], [9.623089, 47.14775], [9.623179, 47.14772], [9.623216, 47.14766], [9.623218, 47.14761], [9.62318, 47.14753], [9.623185, 47.14748], [9.623188, 47.14742], [9.623224, 47.14738], [9.623275, 47.14735], [9.623275, 47.14731], [9.623255, 47.14726], [9.623268, 47.14721], [9.623271, 47.14714], [9.623309, 47.1471], [9.623422, 47.14706], [9.623609, 47.14706], [9.623663, 47.14701], [9.623813, 47.14699], [9.623891, 47.14691], [9.62392, 47.14691], [9.624014, 47.14685], [9.624044, 47.14684], [9.623952, 47.14666], [9.623971, 47.14656], [9.624006, 47.1465], [9.624057, 47.14645], [9.624098, 47.14644], [9.624102, 47.1464], [9.624143, 47.14637], [9.624248, 47.14634], [9.624426, 47.1462], [9.624539, 47.14613], [9.624638, 47.14609], [9.624787, 47.14606], [9.624804, 47.14603], [9.624888, 47.14599], [9.624964, 47.14599], [9.625291, 47.14601], [9.625428, 47.14597], [9.625442, 47.14592], [9.625486, 47.1459], [9.625622, 47.14589], [9.625711, 47.14589], [9.625853, 47.14589], [9.625504, 47.14531], [9.624749, 47.1441], [9.624334, 47.14344], [9.623674, 47.1428], [9.623455, 47.1426], [9.623348, 47.1424], [9.623405, 47.14198], [9.623057, 47.14176], [9.622965, 47.14168], [9.622634, 47.1414], [9.622609, 47.14117], [9.622955, 47.14078], [9.623176, 47.14054], [9.62328, 47.14042], [9.623391, 47.14026], [9.623513, 47.14002], [9.623537, 47.13989], [9.623579, 47.13982], [9.623588, 47.13974], [9.623762, 47.13961], [9.623776, 47.13957], [9.62381, 47.13928], [9.623908, 47.13916], [9.624358, 47.13885], [9.624716, 47.13859], [9.62502, 47.13847], [9.624937, 47.13842], [9.624909, 47.13832], [9.624878, 47.13824], [9.624895, 47.13815], [9.624868, 47.13804], [9.624888, 47.13793], [9.624992, 47.13776], [9.624994, 47.13769], [9.625035, 47.13758], [9.625009, 47.13741], [9.624898, 47.13724], [9.624822, 47.13702], [9.624799, 47.13677], [9.62476, 47.13671], [9.624724, 47.13668], [9.624779, 47.13664], [9.624839, 47.13661], [9.624864, 47.13654], [9.624804, 47.13643], [9.624691, 47.13637], [9.624668, 47.13634], [9.624635, 47.13624], [9.624612, 47.13602], [9.624473, 47.13588], [9.624496, 47.13575], [9.624418, 47.13555], [9.624371, 47.13539], [9.624372, 47.13532], [9.624393, 47.13527], [9.624332, 47.13514], [9.624263, 47.13511], [9.624345, 47.13496], [9.624315, 47.13487], [9.624408, 47.13476], [9.624566, 47.13444], [9.624791, 47.13423], [9.624614, 47.13383], [9.624693, 47.13363], [9.624863, 47.13352], [9.624895, 47.13344], [9.624961, 47.1334], [9.624913, 47.13323], [9.62477, 47.13308], [9.624766, 47.13304], [9.624729, 47.13262], [9.625221, 47.13224], [9.62561, 47.13193], [9.625746, 47.13186], [9.626233, 47.1316], [9.626398, 47.13151], [9.626682, 47.13143], [9.627151, 47.13138], [9.62728, 47.13132], [9.627506, 47.13118], [9.627691, 47.13103], [9.627852, 47.13093], [9.627941, 47.13091], [9.627988, 47.13088], [9.628028, 47.13089], [9.628051, 47.13086], [9.628115, 47.13085], [9.628151, 47.13081], [9.628226, 47.13077], [9.628307, 47.13073], [9.628422, 47.13072], [9.628455, 47.13068], [9.628722, 47.13066], [9.629158, 47.13076], [9.629228, 47.13067], [9.629299, 47.13063], [9.629569, 47.13061], [9.629729, 47.13052], [9.629879, 47.13047], [9.630042, 47.13045], [9.63007, 47.13043], [9.630057, 47.13034], [9.630091, 47.13028], [9.630179, 47.13025], [9.630254, 47.13023], [9.630266, 47.1302], [9.630404, 47.13006], [9.630461, 47.13006], [9.630495, 47.13003], [9.630561, 47.12993], [9.630639, 47.1299], [9.630867, 47.12977], [9.630964, 47.12962], [9.63112, 47.12956], [9.631162, 47.12947], [9.631439, 47.12926], [9.631656, 47.12915], [9.631782, 47.12913], [9.631846, 47.12905], [9.632222, 47.12882], [9.632271, 47.12882], [9.632444, 47.12876], [9.632471, 47.12872], [9.632508, 47.12871], [9.632581, 47.1287], [9.632633, 47.12868], [9.632715, 47.12866], [9.632724, 47.12858], [9.632748, 47.12856], [9.632789, 47.12854], [9.632863, 47.12849], [9.632918, 47.12847], [9.632941, 47.12843], [9.633075, 47.12838], [9.633151, 47.12832], [9.633255, 47.12829], [9.633433, 47.12828], [9.633489, 47.12823], [9.63354, 47.1282], [9.633658, 47.12818], [9.633717, 47.12812], [9.633809, 47.12806], [9.634016, 47.128], [9.634222, 47.12802], [9.6343, 47.12808], [9.634403, 47.12811], [9.63447, 47.12815], [9.634689, 47.12819], [9.634742, 47.12819], [9.63482, 47.12815], [9.634918, 47.12813], [9.635004, 47.12809], [9.634989, 47.12803], [9.634914, 47.12796], [9.634749, 47.12788], [9.634623, 47.12776], [9.634383, 47.12767], [9.63426, 47.12757], [9.634114, 47.1274], [9.634084, 47.12729], [9.633917, 47.12714], [9.63388, 47.12707], [9.633738, 47.12697], [9.633663, 47.12678], [9.633753, 47.12669], [9.633769, 47.12662], [9.633712, 47.1265], [9.633617, 47.12643], [9.63361, 47.12639], [9.633557, 47.12636], [9.633533, 47.12628], [9.633561, 47.12622], [9.633553, 47.12614], [9.63345, 47.12607], [9.63347, 47.12603], [9.633439, 47.12598], [9.633399, 47.12595], [9.633439, 47.1259], [9.633398, 47.1258], [9.633337, 47.12577], [9.633333, 47.12575], [9.633299, 47.12574], [9.633237, 47.12568], [9.633206, 47.12564], [9.633221, 47.12562], [9.63315, 47.12561], [9.633116, 47.12555], [9.633043, 47.12546], [9.633072, 47.12544], [9.63304, 47.12538], [9.633064, 47.12536], [9.632965, 47.1252], [9.632861, 47.12513], [9.632894, 47.12509], [9.632858, 47.12502], [9.632856, 47.12502], [9.632787, 47.12494], [9.632662, 47.12488], [9.632631, 47.1248], [9.632599, 47.12476], [9.63255, 47.12476], [9.632459, 47.12471], [9.632337, 47.12467], [9.632254, 47.12467], [9.632213, 47.12462], [9.631936, 47.12445], [9.631803, 47.12422], [9.631747, 47.12418], [9.631778, 47.12412], [9.631701, 47.1241], [9.631696, 47.12404], [9.631663, 47.12403], [9.631596, 47.12401], [9.631576, 47.12399], [9.631516, 47.12396], [9.631482, 47.12394], [9.631419, 47.12393], [9.631277, 47.12377], [9.631213, 47.12372], [9.631212, 47.12372], [9.631204, 47.12368], [9.631135, 47.12365], [9.6311, 47.12356], [9.631024, 47.12354], [9.630983, 47.12351], [9.630963, 47.12346], [9.630976, 47.12343], [9.630961, 47.12339], [9.630886, 47.12335], [9.630812, 47.12334], [9.630816, 47.12331], [9.630751, 47.12325], [9.630677, 47.12326], [9.63067, 47.12324], [9.630635, 47.12323], [9.630602, 47.12324], [9.630542, 47.1232], [9.630484, 47.12308], [9.630457, 47.12306], [9.630472, 47.123], [9.630449, 47.12299], [9.630404, 47.12299], [9.6303, 47.12295], [9.63029, 47.1229], [9.630197, 47.12283], [9.630125, 47.12282], [9.630074, 47.12276], [9.63, 47.12272], [9.629875, 47.12271], [9.62977, 47.12266], [9.629716, 47.12262], [9.629637, 47.12252], [9.629547, 47.12249], [9.629453, 47.12241], [9.629392, 47.12239], [9.629278, 47.12234], [9.629135, 47.12212], [9.629039, 47.12206], [9.628985, 47.12207], [9.628837, 47.12197], [9.628761, 47.12189], [9.628685, 47.12187], [9.628595, 47.12179], [9.628489, 47.12174], [9.628442, 47.12169], [9.628348, 47.12167], [9.628311, 47.12164], [9.628232, 47.12154], [9.628204, 47.12131], [9.628141, 47.12131], [9.62807, 47.12126], [9.627969, 47.12123], [9.627936, 47.12118], [9.627886, 47.12115], [9.627894, 47.12109], [9.627849, 47.12103], [9.627756, 47.12099], [9.627732, 47.12094], [9.627668, 47.12091], [9.627557, 47.12081], [9.627449, 47.12076], [9.627365, 47.12065], [9.627208, 47.12059], [9.627154, 47.12052], [9.627071, 47.12049], [9.626996, 47.12046], [9.626921, 47.12041], [9.626906, 47.12032], [9.626879, 47.1203], [9.626852, 47.12025], [9.6268, 47.12021], [9.626732, 47.12019], [9.626706, 47.12015], [9.626648, 47.12011], [9.626622, 47.11998], [9.626584, 47.11996], [9.626505, 47.11986], [9.626384, 47.11982], [9.626324, 47.11984], [9.626275, 47.11982], [9.626253, 47.11978], [9.626223, 47.11977], [9.626187, 47.11978], [9.626161, 47.11977], [9.626138, 47.11971], [9.626065, 47.11965], [9.625993, 47.11953], [9.625938, 47.1195], [9.625735, 47.11948], [9.625532, 47.11945], [9.625481, 47.11937], [9.62542, 47.11934], [9.62538, 47.11934], [9.62534, 47.11923], [9.625262, 47.11919], [9.625194, 47.11913], [9.625167, 47.11908], [9.625212, 47.11901], [9.62515, 47.11896], [9.625129, 47.11889], [9.625054, 47.11884], [9.624973, 47.11881], [9.624947, 47.11878], [9.625003, 47.11872], [9.625118, 47.11866], [9.625129, 47.11862], [9.625122, 47.1186], [9.625112, 47.11857], [9.625065, 47.11856], [9.625046, 47.11852], [9.624956, 47.11847], [9.624937, 47.1184], [9.624946, 47.11838], [9.624976, 47.11837], [9.624853, 47.11819], [9.624846, 47.11814], [9.62487, 47.11812], [9.624838, 47.11808], [9.624771, 47.11805], [9.624742, 47.118], [9.624756, 47.11792], [9.624774, 47.1179], [9.62467, 47.11761], [9.624723, 47.11745], [9.62472, 47.11732], [9.624701, 47.11723], [9.624723, 47.11715], [9.624699, 47.11697], [9.624658, 47.11692], [9.624669, 47.11688], [9.624711, 47.11684], [9.624723, 47.11675], [9.624659, 47.11656], [9.624621, 47.11624], [9.624688, 47.11615], [9.624536, 47.11591], [9.624427, 47.11582], [9.624427, 47.11579], [9.624452, 47.11577], [9.624538, 47.11575], [9.624566, 47.1157], [9.624643, 47.11565], [9.62468, 47.11557], [9.624695, 47.11545], [9.624603, 47.11512], [9.624557, 47.11504], [9.624505, 47.11479], [9.624541, 47.11476], [9.624674, 47.11469], [9.624672, 47.11464], [9.624648, 47.11456], [9.624505, 47.11434], [9.624439, 47.1143], [9.624253, 47.11408], [9.624075, 47.11391], [9.624033, 47.11381], [9.624011, 47.11372], [9.624049, 47.11362], [9.624052, 47.11351], [9.624003, 47.11346], [9.624003, 47.1134], [9.623927, 47.11331], [9.623921, 47.11326], [9.623746, 47.11317], [9.623677, 47.11315], [9.623672, 47.11308], [9.623591, 47.113], [9.623641, 47.11291], [9.623599, 47.11286], [9.623588, 47.11279], [9.623445, 47.11269], [9.623394, 47.11268], [9.623359, 47.11271], [9.623309, 47.11272], [9.623247, 47.1127], [9.623243, 47.11267], [9.623169, 47.11262], [9.623168, 47.11259], [9.623105, 47.11255], [9.623033, 47.11256], [9.623013, 47.11248], [9.623014, 47.1124], [9.622959, 47.11237], [9.622915, 47.11239], [9.622863, 47.11238], [9.622832, 47.11233], [9.622778, 47.11231], [9.622733, 47.1123], [9.622676, 47.11225], [9.622646, 47.11224], [9.622627, 47.11223], [9.622637, 47.11217], [9.622612, 47.11213], [9.622547, 47.11208], [9.622525, 47.11201], [9.622509, 47.11198], [9.622234, 47.11183], [9.622071, 47.11172], [9.621991, 47.11171], [9.621954, 47.11162], [9.621814, 47.11147], [9.621729, 47.11143], [9.621657, 47.11142], [9.621624, 47.11132], [9.621562, 47.11121], [9.621521, 47.11117], [9.621459, 47.11112], [9.621365, 47.1109], [9.621273, 47.1108], [9.621245, 47.11073], [9.62123, 47.1107], [9.621189, 47.11066], [9.621051, 47.11062], [9.620905, 47.11062], [9.620833, 47.11054], [9.621008, 47.1103], [9.62112, 47.11005], [9.621206, 47.10992], [9.621353, 47.10963], [9.621448, 47.10951], [9.621514, 47.10925], [9.621538, 47.10921], [9.621546, 47.10916], [9.62163, 47.10913], [9.621697, 47.10899], [9.621797, 47.10891], [9.621786, 47.10889], [9.621816, 47.10883], [9.621815, 47.10881], [9.62185, 47.10879], [9.621906, 47.10873], [9.621922, 47.10864], [9.621988, 47.10858], [9.622088, 47.1086], [9.622129, 47.10859], [9.622229, 47.10853], [9.622246, 47.1085], [9.622195, 47.10847], [9.62224, 47.10843], [9.6223, 47.10842], [9.622304, 47.1084], [9.622275, 47.10834], [9.622309, 47.1083], [9.622362, 47.10829], [9.622533, 47.10827], [9.622566, 47.10825], [9.622593, 47.10825], [9.622725, 47.10821], [9.622751, 47.10819], [9.622723, 47.10811], [9.622855, 47.10807], [9.622998, 47.10798], [9.623195, 47.10795], [9.623254, 47.10794], [9.623391, 47.1079], [9.623563, 47.10788], [9.62362, 47.10786], [9.62365, 47.10786], [9.623662, 47.10789], [9.623706, 47.1079], [9.623846, 47.10788], [9.624087, 47.10782], [9.624155, 47.10778], [9.6242, 47.10776], [9.624216, 47.10775], [9.624331, 47.10773], [9.624354, 47.1077], [9.624412, 47.10769], [9.624461, 47.10766], [9.624588, 47.10763], [9.624689, 47.10761], [9.624781, 47.10763], [9.624819, 47.10762], [9.624936, 47.10761], [9.62498, 47.10759], [9.625025, 47.10758], [9.625069, 47.1076], [9.625157, 47.10759], [9.625219, 47.10759], [9.625242, 47.10758], [9.62529, 47.10758], [9.62544, 47.10755], [9.625672, 47.10753], [9.625713, 47.1075], [9.62582, 47.10749], [9.625888, 47.10746], [9.625979, 47.10747], [9.625991, 47.10751], [9.626145, 47.10751], [9.626329, 47.10749], [9.626392, 47.10752], [9.626543, 47.10753], [9.626651, 47.10754], [9.626693, 47.10756], [9.626773, 47.10755], [9.626886, 47.10755], [9.627042, 47.10751], [9.627285, 47.1076], [9.627602, 47.10755], [9.627747, 47.10756], [9.627847, 47.10755], [9.627961, 47.10758], [9.628332, 47.10758], [9.628489, 47.10755], [9.628556, 47.1075], [9.628416, 47.10666], [9.628403, 47.10658], [9.628397, 47.10654], [9.628347, 47.10623], [9.628333, 47.10615], [9.628232, 47.10548], [9.628284, 47.10544], [9.628345, 47.10543], [9.628401, 47.10539], [9.628483, 47.10538], [9.628516, 47.10534], [9.628779, 47.1053], [9.628905, 47.10521], [9.629274, 47.10512], [9.629384, 47.10506], [9.6294, 47.10501], [9.629453, 47.10499], [9.629751, 47.10484], [9.629884, 47.10481], [9.630015, 47.10481], [9.630165, 47.10474], [9.630279, 47.1046], [9.630525, 47.10444], [9.630573, 47.10432], [9.630632, 47.10427], [9.630704, 47.10426], [9.630713, 47.10421], [9.63077, 47.10416], [9.630876, 47.1041], [9.63098, 47.10398], [9.631035, 47.10395], [9.631078, 47.1039], [9.631188, 47.10387], [9.631183, 47.10382], [9.631265, 47.10373], [9.631341, 47.10371], [9.631396, 47.1036], [9.631412, 47.10352], [9.631517, 47.10349], [9.631565, 47.10343], [9.631616, 47.1034], [9.631672, 47.10334], [9.631732, 47.10326], [9.631825, 47.1032], [9.631924, 47.1031], [9.63212, 47.10299], [9.632184, 47.1029], [9.632151, 47.10284], [9.632158, 47.10281], [9.632227, 47.10277], [9.632361, 47.10271], [9.632442, 47.10271], [9.632497, 47.10265], [9.63278, 47.1025], [9.632935, 47.10244], [9.63304, 47.10244], [9.633088, 47.10234], [9.633176, 47.10232], [9.633213, 47.10227], [9.633188, 47.1022], [9.633196, 47.10205], [9.633253, 47.10195], [9.633438, 47.10177], [9.633503, 47.10163], [9.633541, 47.1016], [9.633565, 47.10153], [9.633599, 47.10151], [9.633682, 47.1014], [9.633771, 47.10139], [9.633802, 47.10136], [9.633853, 47.10135], [9.633916, 47.10128], [9.633926, 47.10127], [9.63404, 47.10125], [9.634241, 47.10123], [9.634244, 47.10123], [9.634264, 47.10122], [9.634375, 47.10117], [9.634559, 47.10052], [9.634786, 47.0997], [9.635047, 47.09871], [9.635312, 47.09772], [9.63556, 47.09679], [9.635714, 47.09624], [9.635696, 47.09594], [9.635673, 47.09558], [9.635626, 47.09493], [9.635639, 47.09461], [9.63557, 47.09335], [9.635518, 47.09296], [9.635441, 47.09233], [9.635411, 47.09161], [9.635374, 47.09063], [9.634924, 47.08977], [9.634044, 47.08803], [9.633201, 47.08623], [9.633215, 47.08542], [9.63344, 47.08415], [9.633532, 47.08342], [9.633024, 47.0832], [9.632107, 47.08314], [9.6313, 47.08309], [9.629946, 47.083], [9.628801, 47.08291], [9.627451, 47.08278], [9.625999, 47.08269], [9.62497, 47.08262], [9.623543, 47.08253], [9.622821, 47.08188], [9.622249, 47.08137], [9.621614, 47.08081], [9.620939, 47.08022], [9.620839, 47.08], [9.620808, 47.07993], [9.620779, 47.0799], [9.620779, 47.07985], [9.620707, 47.07975], [9.620583, 47.0796], [9.620571, 47.07954], [9.620636, 47.07944], [9.620623, 47.0794], [9.620598, 47.07937], [9.620522, 47.07933], [9.620394, 47.07927], [9.620368, 47.07923], [9.620304, 47.07919], [9.620242, 47.0791], [9.620162, 47.07905], [9.620046, 47.07901], [9.619921, 47.07901], [9.619842, 47.07899], [9.619749, 47.07884], [9.619534, 47.07872], [9.619486, 47.07867], [9.619268, 47.07855], [9.619188, 47.0785], [9.61878, 47.0782], [9.618684, 47.07814], [9.618611, 47.07819], [9.618569, 47.0782], [9.618507, 47.07824], [9.618317, 47.07829], [9.618268, 47.07833], [9.618146, 47.07837], [9.618067, 47.07837], [9.617935, 47.07841], [9.617871, 47.07836], [9.617723, 47.07842], [9.617624, 47.07843], [9.617605, 47.07846], [9.617492, 47.07845], [9.617465, 47.07849], [9.617431, 47.07848], [9.617358, 47.07855], [9.617303, 47.07856], [9.617215, 47.07855], [9.61719, 47.07857], [9.617029, 47.07856], [9.616926, 47.0786], [9.616614, 47.07859], [9.616531, 47.07862], [9.616427, 47.07866], [9.616292, 47.07867], [9.616254, 47.07869], [9.616176, 47.07869], [9.616105, 47.0787], [9.616004, 47.0787], [9.615532, 47.0788], [9.615456, 47.0788], [9.615219, 47.07882], [9.615145, 47.07881], [9.615123, 47.07883], [9.615076, 47.07884], [9.615008, 47.07882], [9.6149, 47.07882], [9.61484, 47.07881], [9.614621, 47.07884], [9.614489, 47.07878], [9.614447, 47.07877], [9.614222, 47.07872], [9.61418, 47.07869], [9.614102, 47.07868], [9.614076, 47.07866], [9.613998, 47.07864], [9.613883, 47.07869], [9.613669, 47.0787], [9.613484, 47.07869], [9.613365, 47.07871], [9.613093, 47.07877], [9.612995, 47.07881], [9.612955, 47.0789], [9.61284, 47.07901], [9.612652, 47.07907], [9.612549, 47.07908], [9.612459, 47.0791], [9.61236, 47.07914], [9.612235, 47.07917], [9.612129, 47.07921], [9.612099, 47.07925], [9.612082, 47.07926], [9.612034, 47.07927], [9.611997, 47.0793], [9.611798, 47.07939], [9.611585, 47.07945], [9.611526, 47.0794], [9.611499, 47.07934], [9.611487, 47.0793], [9.611608, 47.07902], [9.611542, 47.07895], [9.611524, 47.0789], [9.611412, 47.07876], [9.611336, 47.0787], [9.611347, 47.07866], [9.611381, 47.07864], [9.611373, 47.07856], [9.611438, 47.07853], [9.611507, 47.07839], [9.611512, 47.07822], [9.611539, 47.07815], [9.611539, 47.07796], [9.611484, 47.07793], [9.611465, 47.07786], [9.611297, 47.07767], [9.611191, 47.07734], [9.611223, 47.07722], [9.611167, 47.07719], [9.611222, 47.07715], [9.611252, 47.07704], [9.611221, 47.07698], [9.611251, 47.07696], [9.611247, 47.0769], [9.611299, 47.07688], [9.611292, 47.07683], [9.611373, 47.0767], [9.611384, 47.07659], [9.611331, 47.07642], [9.611265, 47.07633], [9.611168, 47.07623], [9.611047, 47.07593], [9.611022, 47.07583], [9.610875, 47.0755], [9.610815, 47.07541], [9.610764, 47.07538], [9.6106, 47.07531], [9.610521, 47.07524], [9.610507, 47.07518], [9.610614, 47.07505], [9.610947, 47.07489], [9.611116, 47.0748], [9.611298, 47.07466], [9.611488, 47.07439], [9.611596, 47.07413], [9.611787, 47.07399], [9.611761, 47.07392], [9.611817, 47.07381], [9.611964, 47.07372], [9.61206, 47.07369], [9.612098, 47.07352], [9.612084, 47.07334], [9.612209, 47.07315], [9.612331, 47.07309], [9.612339, 47.07305], [9.612444, 47.07294], [9.612408, 47.07289], [9.612417, 47.07279], [9.61249, 47.07257], [9.612607, 47.07244], [9.612791, 47.07215], [9.612908, 47.07204], [9.612973, 47.07192], [9.61296, 47.07185], [9.613033, 47.07184], [9.613108, 47.07179], [9.613173, 47.07171], [9.613227, 47.07151], [9.613353, 47.07139], [9.613392, 47.07128], [9.613404, 47.071], [9.613445, 47.06948], [9.612899, 47.06865], [9.612709, 47.06837], [9.612704, 47.06789], [9.612544, 47.06783], [9.612503, 47.06776], [9.612501, 47.06773], [9.612484, 47.0677], [9.612398, 47.06767], [9.612133, 47.06743], [9.612123, 47.06738], [9.612117, 47.06736], [9.61207, 47.06732], [9.612062, 47.06729], [9.611971, 47.06725], [9.611844, 47.06724], [9.61144, 47.06699], [9.611155, 47.06684], [9.611227, 47.06672], [9.611303, 47.06658], [9.611312, 47.06648], [9.61128, 47.06642], [9.611317, 47.06637], [9.61134, 47.06628], [9.611295, 47.06619], [9.611299, 47.06615], [9.611274, 47.06606], [9.611299, 47.06602], [9.611308, 47.06597], [9.611293, 47.06595], [9.611256, 47.06591], [9.611293, 47.06583], [9.611254, 47.06578], [9.611253, 47.06574], [9.611194, 47.06561], [9.611239, 47.06557], [9.611244, 47.06552], [9.611245, 47.06546], [9.611311, 47.06539], [9.611408, 47.06536], [9.6115, 47.06532], [9.611596, 47.06518], [9.611603, 47.06517], [9.611599, 47.06511], [9.611636, 47.06501], [9.611704, 47.06498], [9.61181, 47.06485], [9.611786, 47.06476], [9.611804, 47.06466], [9.61169, 47.06449], [9.611523, 47.06435], [9.611064, 47.06411], [9.610926, 47.06407], [9.610926, 47.064], [9.610908, 47.06398], [9.610922, 47.06395], [9.610841, 47.06382], [9.610838, 47.06377], [9.6108, 47.06373], [9.610771, 47.06367], [9.610808, 47.0636], [9.610782, 47.06351], [9.610797, 47.06348], [9.61071, 47.0634], [9.610637, 47.06336], [9.610562, 47.06327], [9.610421, 47.0632], [9.6101, 47.06307], [9.61005, 47.06306], [9.61, 47.06307], [9.609923, 47.06305], [9.609829, 47.06295], [9.609854, 47.0629], [9.609817, 47.06287], [9.609754, 47.06287], [9.609616, 47.06278], [9.609517, 47.06275], [9.609435, 47.06269], [9.609386, 47.06243], [9.609271, 47.06235], [9.609131, 47.06222], [9.609114, 47.06216], [9.60903, 47.06208], [9.608797, 47.06186], [9.608748, 47.06185], [9.608663, 47.06182], [9.608635, 47.0618], [9.608586, 47.06177], [9.608329, 47.06159], [9.60785, 47.06134], [9.607447, 47.06108], [9.607339, 47.06095], [9.607054, 47.06077], [9.606962, 47.06077], [9.606692, 47.06076], [9.605987, 47.061], [9.605097, 47.06121], [9.604914, 47.0614], [9.604751, 47.06148], [9.604328, 47.06155], [9.60396, 47.06166], [9.603472, 47.06177], [9.60301, 47.06157], [9.60262, 47.06147], [9.60218, 47.06118], [9.601549, 47.06094], [9.601046, 47.06041], [9.600952, 47.05987], [9.600695, 47.0597], [9.600441, 47.05954], [9.599762, 47.05897], [9.598298, 47.05887], [9.597892, 47.05892], [9.597427, 47.0587], [9.596546, 47.05851], [9.595696, 47.05819], [9.595382, 47.05797], [9.594871, 47.05778], [9.594771, 47.05774], [9.594683, 47.0577], [9.594519, 47.05764], [9.594351, 47.05756], [9.59379, 47.05727], [9.59356, 47.05722], [9.593101, 47.05722], [9.592613, 47.05722], [9.592174, 47.05719], [9.591689, 47.05716], [9.591454, 47.05697], [9.591032, 47.0568], [9.590196, 47.05619], [9.589171, 47.05573], [9.588852, 47.05531], [9.588064, 47.05485], [9.587817, 47.05481], [9.58703, 47.05476], [9.585525, 47.0543], [9.584558, 47.05401], [9.583678, 47.05379], [9.583409, 47.05369], [9.582176, 47.05282], [9.582159, 47.0527], [9.581995, 47.05272], [9.581804, 47.05279], [9.581578, 47.05274], [9.581161, 47.05274], [9.580104, 47.0529], [9.579337, 47.05282], [9.578872, 47.05309], [9.57848, 47.05318], [9.578075, 47.05308], [9.577865, 47.05313], [9.57736, 47.05326], [9.576858, 47.05322], [9.576013, 47.05327], [9.575588, 47.05308], [9.575268, 47.05299], [9.575176, 47.05297], [9.573622, 47.05265], [9.572916, 47.05276], [9.572092, 47.05211], [9.571994, 47.05208], [9.571686, 47.05209], [9.571137, 47.0522], [9.570595, 47.05217], [9.570402, 47.05195], [9.569411, 47.05185], [9.568565, 47.05181], [9.567136, 47.0514], [9.566109, 47.05121], [9.56528, 47.05089], [9.564575, 47.05084], [9.564082, 47.05045], [9.563878, 47.0504], [9.563175, 47.04985], [9.562765, 47.04962], [9.562371, 47.04945], [9.561452, 47.04937], [9.561142, 47.04929], [9.560922, 47.04918], [9.560574, 47.04892], [9.559787, 47.04857], [9.558942, 47.04843], [9.557438, 47.04849], [9.55692, 47.04852], [9.556373, 47.04909], [9.555771, 47.04973], [9.555649, 47.05], [9.555524, 47.05012], [9.555163, 47.05031], [9.55455, 47.05026], [9.554386, 47.05051], [9.554388, 47.05102], [9.554145, 47.0515], [9.553939, 47.05165], [9.553899, 47.05198], [9.553697, 47.05233], [9.553517, 47.053], [9.553492, 47.05309], [9.553563, 47.05317], [9.553535, 47.05342], [9.553378, 47.05479], [9.553367, 47.05501], [9.553273, 47.05698], [9.553055, 47.0574], [9.55262, 47.05773], [9.552465, 47.05785], [9.552391, 47.05795], [9.552081, 47.05838], [9.551775, 47.05854], [9.551619, 47.05884], [9.550937, 47.05909], [9.550477, 47.05933], [9.550257, 47.05951], [9.549949, 47.05993], [9.549236, 47.06056], [9.54889, 47.06101], [9.548611, 47.06114], [9.54839, 47.06124], [9.548093, 47.06132], [9.547593, 47.06159], [9.546999, 47.06166], [9.545614, 47.06208], [9.545065, 47.06229], [9.54491, 47.06233], [9.544697, 47.06238], [9.544397, 47.06262], [9.544266, 47.06273], [9.544229, 47.06293], [9.544137, 47.06302], [9.544031, 47.06311], [9.543204, 47.06368], [9.541883, 47.06409], [9.541468, 47.06431], [9.540795, 47.06449], [9.539953, 47.06498], [9.539753, 47.06515], [9.539511, 47.065], [9.538594, 47.06477], [9.537458, 47.0646], [9.536507, 47.06427], [9.536209, 47.06421], [9.535235, 47.06422], [9.534535, 47.06388], [9.534119, 47.06382], [9.53358, 47.06357], [9.533109, 47.06327], [9.532211, 47.06295], [9.531352, 47.06308], [9.530786, 47.06301], [9.530599, 47.06304], [9.529675, 47.06285], [9.521042, 47.06104], [9.517874, 47.06037], [9.516538, 47.06009], [9.516153, 47.05958], [9.515367, 47.05853], [9.514654, 47.05784], [9.514139, 47.05734], [9.512073, 47.05682], [9.506863, 47.05649], [9.502764, 47.05623], [9.501525, 47.05668], [9.500648, 47.05681], [9.499996, 47.05713], [9.499704, 47.05594], [9.499336, 47.05481], [9.499532, 47.05415], [9.497387, 47.05416], [9.493324, 47.05652], [9.492413, 47.05643], [9.491308, 47.05625], [9.490769, 47.05564], [9.490346, 47.05495], [9.490075, 47.05426], [9.48832, 47.05271], [9.486324, 47.04985], [9.485748, 47.04909], [9.484961, 47.04919], [9.484375, 47.04926], [9.483643, 47.05037], [9.483183, 47.05107], [9.482722, 47.05177], [9.482327, 47.05214], [9.481888, 47.05254], [9.481671, 47.05343], [9.481792, 47.05468], [9.482274, 47.05612], [9.481054, 47.05607], [9.480087, 47.05539], [9.479782, 47.0554], [9.478801, 47.05565], [9.47774, 47.05509], [9.476887, 47.05461], [9.476271, 47.05346], [9.47682, 47.05212], [9.476696, 47.05195], [9.476473, 47.0519], [9.475786, 47.05175], [9.47242, 47.05979], [9.471777, 47.06152], [9.471566, 47.06263]]]]}, "properties": {}}]}